{
  "norad_id": 44034,
  "name": "HELLAS-SAT 4 & SGS-1",
  "history": [
    {
      "epoch": "2026-03-28T19:54:38.600352Z",
      "apogee_km": 35800.91848331575,
      "perigee_km": 35773.08106001909,
      "latitude_deg": 0.038648456775247336,
      "longitude_deg": 39.04452627095517,
      "height_km": 35773.7750029319,
      "semi_major_axis_km": 42165.13677166742,
      "eccentricity": 0.0003301,
      "inclination_deg": 0.0702,
      "raan_deg": 124.6416,
      "arg_perigee_deg": 14.9394,
      "mean_anomaly_deg": 24.33,
      "mean_motion_rev_day": 1.00270341
    },
    {
      "epoch": "2026-03-29T06:22:25.597920Z",
      "apogee_km": 35799.84427083569,
      "perigee_km": 35770.29460923426,
      "latitude_deg": -0.0037366396540856354,
      "longitude_deg": 39.02892853435441,
      "height_km": 35799.15528811361,
      "semi_major_axis_km": 42163.20644003498,
      "eccentricity": 0.00035042,
      "inclination_deg": 0.0681,
      "raan_deg": 126.7373,
      "arg_perigee_deg": 5.6662,
      "mean_anomaly_deg": 188.8891,
      "mean_motion_rev_day": 1.00277227
    },
    {
      "epoch": "2026-03-30T18:18:37.730016Z",
      "apogee_km": 35800.92943591365,
      "perigee_km": 35772.7236052162,
      "latitude_deg": 0.00432790390931309,
      "longitude_deg": 39.025140130821335,
      "height_km": 35772.25648698061,
      "semi_major_axis_km": 42164.963520564925,
      "eccentricity": 0.00033447,
      "inclination_deg": 0.0707,
      "raan_deg": 124.5141,
      "arg_perigee_deg": 12.9139,
      "mean_anomaly_deg": 4.3811,
      "mean_motion_rev_day": 1.00270959
    },
    {
      "epoch": "2026-03-31T07:57:38.595744Z",
      "apogee_km": 35804.1757753552,
      "perigee_km": 35786.94866269822,
      "latitude_deg": -0.034955799081130244,
      "longitude_deg": 39.00332478499271,
      "height_km": 35803.650889219716,
      "semi_major_axis_km": 42173.69921902671,
      "eccentricity": 0.00020424,
      "inclination_deg": 0.0688,
      "raan_deg": 126.3341,
      "arg_perigee_deg": 34.4826,
      "mean_anomaly_deg": 186.2915,
      "mean_motion_rev_day": 1.00239806
    },
    {
      "epoch": "2026-04-01T16:31:01.834752Z",
      "apogee_km": 35801.09283784887,
      "perigee_km": 35771.89804634596,
      "latitude_deg": -0.03528658012636051,
      "longitude_deg": 39.012090804494726,
      "height_km": 35772.1431988871,
      "semi_major_axis_km": 42164.63244209741,
      "eccentricity": 0.0003462,
      "inclination_deg": 0.0684,
      "raan_deg": 127.1289,
      "arg_perigee_deg": 7.5374,
      "mean_anomaly_deg": 342.1485,
      "mean_motion_rev_day": 1.0027214
    },
    {
      "epoch": "2026-04-02T18:11:14.525664Z",
      "apogee_km": 35800.85212185939,
      "perigee_km": 35771.865717494446,
      "latitude_deg": 0.0006839948923426896,
      "longitude_deg": 39.02750217885548,
      "height_km": 35771.427857225324,
      "semi_major_axis_km": 42164.49591967692,
      "eccentricity": 0.00034373,
      "inclination_deg": 0.0704,
      "raan_deg": 124.0799,
      "arg_perigee_deg": 13.9696,
      "mean_anomaly_deg": 4.8756,
      "mean_motion_rev_day": 1.00272627
    },
    {
      "epoch": "2026-04-03T19:51:29.263392Z",
      "apogee_km": 35801.004352104035,
      "perigee_km": 35771.93607189208,
      "latitude_deg": 0.02974304721948423,
      "longitude_deg": 39.046637021821866,
      "height_km": 35773.8986113802,
      "semi_major_axis_km": 42164.60721199806,
      "eccentricity": 0.0003447,
      "inclination_deg": 0.069,
      "raan_deg": 125.9797,
      "arg_perigee_deg": 9.1136,
      "mean_anomaly_deg": 33.9507,
      "mean_motion_rev_day": 1.0027223
    },
    {
      "epoch": "2026-04-03T23:16:57.128160Z",
      "apogee_km": 35801.05591837058,
      "perigee_km": 35771.54249960174,
      "latitude_deg": 0.07001511097152653,
      "longitude_deg": 39.06586765675279,
      "height_km": 35784.4768953239,
      "semi_major_axis_km": 42164.43620898616,
      "eccentricity": 0.00034998,
      "inclination_deg": 0.0693,
      "raan_deg": 125.9182,
      "arg_perigee_deg": 9.4906,
      "mean_anomaly_deg": 85.1435,
      "mean_motion_rev_day": 1.0027284
    },
    {
      "epoch": "2026-04-05T12:55:53.905440Z",
      "apogee_km": 35801.16852311687,
      "perigee_km": 35771.881792075445,
      "latitude_deg": -0.06702203819021328,
      "longitude_deg": 38.987625260207096,
      "height_km": 35780.672337942866,
      "semi_major_axis_km": 42164.66215759616,
      "eccentricity": 0.00034729,
      "inclination_deg": 0.0683,
      "raan_deg": 125.9916,
      "arg_perigee_deg": 9.1091,
      "mean_anomaly_deg": 291.7357,
      "mean_motion_rev_day": 1.00272034
    },
    {
      "epoch": "2026-04-05T19:46:33.221568Z",
      "apogee_km": 35801.199812315426,
      "perigee_km": 35771.895356529254,
      "latitude_deg": 0.03013247678150683,
      "longitude_deg": 39.04673624207002,
      "height_km": 35774.0194370065,
      "semi_major_axis_km": 42164.68458442234,
      "eccentricity": 0.0003475,
      "inclination_deg": 0.0688,
      "raan_deg": 125.2446,
      "arg_perigee_deg": 9.6597,
      "mean_anomaly_deg": 34.877,
      "mean_motion_rev_day": 1.00271954
    },
    {
      "epoch": "2026-04-06T01:28:38.797824Z",
      "apogee_km": 35801.10990683405,
      "perigee_km": 35771.828274488325,
      "latitude_deg": 0.06298282901901885,
      "longitude_deg": 39.05883793161339,
      "height_km": 35793.292614102975,
      "semi_major_axis_km": 42164.60609066119,
      "eccentricity": 0.00034723,
      "inclination_deg": 0.0686,
      "raan_deg": 125.1124,
      "arg_perigee_deg": 10.0486,
      "mean_anomaly_deg": 120.3783,
      "mean_motion_rev_day": 1.00272234
    },
    {
      "epoch": "2026-04-06T19:44:05.404128Z",
      "apogee_km": 35798.14503718446,
      "perigee_km": 35770.44431957177,
      "latitude_deg": 0.03289645589639172,
      "longitude_deg": 39.0425288971795,
      "height_km": 35771.12982507575,
      "semi_major_axis_km": 42162.43167837812,
      "eccentricity": 0.0003285,
      "inclination_deg": 0.069,
      "raan_deg": 123.0844,
      "arg_perigee_deg": 22.9832,
      "mean_anomaly_deg": 24.0859,
      "mean_motion_rev_day": 1.00279991
    },
    {
      "epoch": "2026-04-07T23:07:00.912864Z",
      "apogee_km": 35802.28425033898,
      "perigee_km": 35770.60347086355,
      "latitude_deg": 0.06587172681604062,
      "longitude_deg": 39.07238988778255,
      "height_km": 35782.472189210566,
      "semi_major_axis_km": 42164.580860601265,
      "eccentricity": 0.00037568,
      "inclination_deg": 0.0676,
      "raan_deg": 125.8596,
      "arg_perigee_deg": 18.5659,
      "mean_anomaly_deg": 77.5876,
      "mean_motion_rev_day": 1.00272324
    },
    {
      "epoch": "2026-04-09T17:54:01.622304Z",
      "apogee_km": 35798.62799320667,
      "perigee_km": 35771.28944194339,
      "latitude_deg": 0.008025795643763373,
      "longitude_deg": 39.036274911071885,
      "height_km": 35770.88168144761,
      "semi_major_axis_km": 42163.09571757503,
      "eccentricity": 0.0003242,
      "inclination_deg": 0.0711,
      "raan_deg": 124.5903,
      "arg_perigee_deg": 14.6506,
      "mean_anomaly_deg": 6.285,
      "mean_motion_rev_day": 1.00277622
    },
    {
      "epoch": "2026-04-09T19:36:41.565600Z",
      "apogee_km": 35800.39938088674,
      "perigee_km": 35771.64342485598,
      "latitude_deg": 0.037617497392480485,
      "longitude_deg": 39.052988297567325,
      "height_km": 35773.6377288579,
      "semi_major_axis_km": 42164.15840287136,
      "eccentricity": 0.000341,
      "inclination_deg": 0.0707,
      "raan_deg": 124.847,
      "arg_perigee_deg": 12.0609,
      "mean_anomaly_deg": 34.3535,
      "mean_motion_rev_day": 1.00273831
    },
    {
      "epoch": "2026-04-11T04:08:38.647392Z",
      "apogee_km": 35803.820712283516,
      "perigee_km": 35772.010642143825,
      "latitude_deg": 0.024115375264139285,
      "longitude_deg": 39.026837332305576,
      "height_km": 35802.642809963116,
      "semi_major_axis_km": 42166.05267721367,
      "eccentricity": 0.0003772,
      "inclination_deg": 0.0674,
      "raan_deg": 125.8138,
      "arg_perigee_deg": 10.789,
      "mean_anomaly_deg": 163.9673,
      "mean_motion_rev_day": 1.00267074
    },
    {
      "epoch": "2026-04-13T05:07:38.853696Z",
      "apogee_km": 35787.918462134796,
      "perigee_km": 35774.35076534406,
      "latitude_deg": 0.009934026385732184,
      "longitude_deg": 39.04683517062451,
      "height_km": 35787.32899512065,
      "semi_major_axis_km": 42159.27161373943,
      "eccentricity": 0.00016091,
      "inclination_deg": 0.0661,
      "raan_deg": 128.7203,
      "arg_perigee_deg": 1.0174,
      "mean_anomaly_deg": 187.6327,
      "mean_motion_rev_day": 1.00291266
    },
    {
      "epoch": "2026-04-14T17:41:16.483776Z",
      "apogee_km": 35802.6443105039,
      "perigee_km": 35770.98686410135,
      "latitude_deg": -0.0020306062933083653,
      "longitude_deg": 39.03002201298338,
      "height_km": 35771.15518902721,
      "semi_major_axis_km": 42164.95258730263,
      "eccentricity": 0.0003754,
      "inclination_deg": 0.0652,
      "raan_deg": 129.4357,
      "arg_perigee_deg": 1.4866,
      "mean_anomaly_deg": 16.3287,
      "mean_motion_rev_day": 1.00270998
    },
    {
      "epoch": "2026-04-15T19:21:20.970144Z",
      "apogee_km": 35802.45122272652,
      "perigee_km": 35770.67590438183,
      "latitude_deg": 0.025438325017482,
      "longitude_deg": 39.046521603626374,
      "height_km": 35774.14551288495,
      "semi_major_axis_km": 42164.70056355418,
      "eccentricity": 0.0003768,
      "inclination_deg": 0.0657,
      "raan_deg": 128.7669,
      "arg_perigee_deg": 3.1513,
      "mean_anomaly_deg": 41.4079,
      "mean_motion_rev_day": 1.00271897
    },
    {
      "epoch": "2026-04-16T14:14:38.786208Z",
      "apogee_km": 35802.26680585709,
      "perigee_km": 35770.63493203781,
      "latitude_deg": -0.05142067082841465,
      "longitude_deg": 38.99400941735197,
      "height_km": 35773.11655181512,
      "semi_major_axis_km": 42164.58786894745,
      "eccentricity": 0.0003751,
      "inclination_deg": 0.0673,
      "raan_deg": 127.2514,
      "arg_perigee_deg": 5.3951,
      "mean_anomaly_deg": 324.7813,
      "mean_motion_rev_day": 1.00272299
    }
  ]
}